{"version": 0.6, "generator": "Overpass API 0.7.56.7 b85c4387", "osm3s": {"timestamp_osm_base": "2020-11-06T17:32:03Z", "copyright": "The data included in this document is from www.openstreetmap.org. The data is made available under ODbL."}, "elements": [{"type": "node", "id": 25531333, "lat": 46.2268091, "lon": 5.9922256, "tags": {"amenity": "fast_food", "brand": "McDonald's", "brand:wikidata": "Q38076", "brand:wikipedia": "fr:McDonald's", "cuisine": "burger", "name": "McDonald's", "takeaway": "yes"}}, {"type": "node", "id": 287035005, "lat": 46.21804, "lon": 6.1149938, "tags": {"addr:city": "Gen\u00e8ve", "addr:housenumber": "27", "addr:postcode": "1211", "addr:street": "Avenue Louis-Casa\u00ef", "amenity": "fast_food", "brand": "McDonald's", "brand:wikidata": "Q38076", "brand:wikipedia": "en:McDonald's", "cuisine": "burger", "delivery": "no", "drive_through": "no", "name": "McDonald's", "opening_hours": "06.30-24.00, 06.30 - 02.00 (Fri+Sat)", "operator": "McDonalds", "smoking": "no", "takeaway": "yes"}}, {"type": "node", "id": 292178737, "lat": 46.2090171, "lon": 6.1441096, "tags": {"addr:city": "Gen\u00e8ve", "amenity": "fast_food", "brand": "McDonald's", "brand:wikidata": "Q38076", "brand:wikipedia": "en:McDonald's", "cuisine": "burger", "delivery": "no", "drive_through": "no", "name": "McDonald's", "operator": "McDonald's", "smoking": "no", "takeaway": "yes"}}, {"type": "node", "id": 310347696, "lat": 46.2133722, "lon": 6.1296471, "tags": {"addr:city": "Gen\u00e8ve", "addr:street": "Avenue Wendt", "amenity": "fast_food", "brand": "McDonald's", "brand:wikidata": "Q38076", "brand:wikipedia": "en:McDonald's", "cuisine": "burger", "delivery": "no", "drive_through": "no", "name": "McDonald's", "opening_hours": "Mo-Su 08:00-01:00", "operator": "McDonald's", "outdoor_seating": "yes", "smoking": "no", "takeaway": "yes", "wheelchair": "yes"}}, {"type": "node", "id": 582822243, "lat": 46.1841662, "lon": 6.1422171, "tags": {"addr:city": "Carouge", "addr:housenumber": "27", "addr:street": "Rue Vautier", "amenity": "fast_food", "cuisine": "kebab", "name": "Constantine"}}, {"type": "node", "id": 913687988, "lat": 46.2059589, "lon": 6.0987779, "tags": {"addr:city": "Le Lignon", "addr:housenumber": "40", "addr:street": "Route du Bois-des-Fr\u00e8res", "amenity": "fast_food", "brand": "McDonald's", "brand:wikidata": "Q38076", "brand:wikipedia": "en:McDonald's", "cuisine": "burger", "drive_through": "yes", "name": "McDonald's", "outdoor_seating": "yes", "takeaway": "yes", "wheelchair": "yes"}}, {"type": "node", "id": 918999945, "lat": 46.255595, "lon": 6.1552873}, {"type": "node", "id": 918999981, "lat": 46.2554967, "lon": 6.1554566}, {"type": "node", "id": 924029243, "lat": 46.2188539, "lon": 6.1134195, "tags": {"addr:city": "Gen\u00e8ve", "addr:housenumber": "27", "addr:postcode": "1211", "addr:street": "Avenue Louis-Casa\u00ef", "amenity": "fast_food", "brand": "McDonald's", "brand:wikidata": "Q38076", "brand:wikipedia": "en:McDonald's", "cuisine": "burger", "delivery": "no", "drive_through": "no", "name": "McDonald's", "opening_hours": "Su-Th 08:00-22:00, Fr-Sa 08:00-23:00", "smoking": "no", "takeaway": "yes", "wheelchair": "yes"}}, {"type": "node", "id": 941457782, "lat": 46.2038651, "lon": 6.1465341, "tags": {"addr:city": "Gen\u00e8ve", "addr:country": "CH", "addr:housenumber": "17", "addr:postcode": "1204", "addr:street": "Galerie Jean-Malbuisson", "amenity": "fast_food", "brand": "McDonald's", "brand:wikidata": "Q38076", "brand:wikipedia": "en:McDonald's", "cuisine": "burger", "name": "McDonald's", "takeaway": "yes", "wheelchair": "no"}}, {"type": "node", "id": 942043215, "lat": 46.1983488, "lon": 6.1427822, "tags": {"addr:city": "Gen\u00e8ve", "addr:housenumber": "1", "addr:postcode": "1205", "addr:street": "Rond-Point de Plainpalais", "amenity": "fast_food", "brand": "McDonald's", "brand:wikidata": "Q38076", "brand:wikipedia": "en:McDonald's", "cuisine": "burger", "name": "McDonald's", "opening_hours": "Mo-Su 07:00-24:00", "phone": "+41 22 320 71 10", "takeaway": "yes", "wheelchair": "yes"}}, {"type": "node", "id": 963381483, "lat": 46.2112921, "lon": 6.1445828, "tags": {"amenity": "fast_food", "brand": "McDonald's", "brand:wikidata": "Q38076", "brand:wikipedia": "en:McDonald's", "cuisine": "burger", "name": "McDonald's", "takeaway": "yes"}}, {"type": "node", "id": 972071685, "lat": 46.2019663, "lon": 6.1526595, "tags": {"addr:city": "Gen\u00e8ve", "addr:country": "CH", "addr:housenumber": "3", "addr:postcode": "1204", "addr:street": "Cours de Rive", "amenity": "fast_food", "brand": "McDonald's", "brand:wikidata": "Q38076", "brand:wikipedia": "en:McDonald's", "cuisine": "burger", "name": "McDonald's", "takeaway": "yes", "wheelchair": "limited"}}, {"type": "node", "id": 1211422053, "lat": 46.2554367, "lon": 6.1550962}, {"type": "node", "id": 1211422483, "lat": 46.2553371, "lon": 6.155264}, {"type": "node", "id": 1211422590, "lat": 46.2554291, "lon": 6.1551093}, {"type": "node", "id": 1247776121, "lat": 46.226755, "lon": 5.99225}, {"type": "node", "id": 1247776202, "lat": 46.226791, "lon": 5.992046}, {"type": "node", "id": 1247776558, "lat": 46.226818, "lon": 5.992315}, {"type": "node", "id": 1247779443, "lat": 46.226696, "lon": 5.992177}, {"type": "node", "id": 1247780081, "lat": 46.226923, "lon": 5.992253}, {"type": "node", "id": 1247782255, "lat": 46.226798, "lon": 5.992032}, {"type": "node", "id": 1247782849, "lat": 46.226808, "lon": 5.992225}, {"type": "node", "id": 1247784412, "lat": 46.226919, "lon": 5.992254}, {"type": "node", "id": 1247784595, "lat": 46.226711, "lon": 5.992351}, {"type": "node", "id": 1247786752, "lat": 46.226732, "lon": 5.992091}, {"type": "node", "id": 1247787306, "lat": 46.226786, "lon": 5.992275}, {"type": "node", "id": 1247790287, "lat": 46.226944, "lon": 5.992172}, {"type": "node", "id": 1247790610, "lat": 46.226926, "lon": 5.992236}, {"type": "node", "id": 1247790976, "lat": 46.226709, "lon": 5.992337}, {"type": "node", "id": 1247793449, "lat": 46.226762, "lon": 5.99202}, {"type": "node", "id": 1247794033, "lat": 46.226865, "lon": 5.992268}, {"type": "node", "id": 1247796539, "lat": 46.226919, "lon": 5.99223}, {"type": "node", "id": 1247796653, "lat": 46.226927, "lon": 5.992241}, {"type": "node", "id": 1247796836, "lat": 46.22678, "lon": 5.992401}, {"type": "node", "id": 1247798163, "lat": 46.226718, "lon": 5.992124}, {"type": "node", "id": 1247798452, "lat": 46.226863, "lon": 5.992273}, {"type": "node", "id": 1247800403, "lat": 46.22692, "lon": 5.992139}, {"type": "node", "id": 1247800999, "lat": 46.226771, "lon": 5.992404}, {"type": "node", "id": 1247802457, "lat": 46.226735, "lon": 5.992117}, {"type": "node", "id": 1247802746, "lat": 46.226912, "lon": 5.992247}, {"type": "node", "id": 1247804441, "lat": 46.226746, "lon": 5.992252}, {"type": "node", "id": 1247804522, "lat": 46.226916, "lon": 5.992148}, {"type": "node", "id": 1247804839, "lat": 46.226815, "lon": 5.992302}, {"type": "node", "id": 1247806121, "lat": 46.226752, "lon": 5.992227}, {"type": "node", "id": 1247806410, "lat": 46.226893, "lon": 5.992293}, {"type": "node", "id": 1286683112, "lat": 46.1960771, "lon": 6.1420608, "tags": {"amenity": "fast_food", "cuisine": "kebab", "name": "Au bon kebab"}}, {"type": "node", "id": 1413888244, "lat": 46.1935367, "lon": 6.228908, "tags": {"addr:city": "Annemasse", "addr:housenumber": "33", "addr:postcode": "74100", "addr:street": "Rue du Parc", "amenity": "fast_food", "brand": "Domino's Pizza", "brand:wikidata": "Q839466", "brand:wikipedia": "fr:Domino's Pizza", "contact:facebook": "https://www.facebook.com/dominospizzafrance", "contact:instagram": "https://www.instagram.com/dominospizza_france/?hl=fr", "contact:phone": "+33 4 50 74 07 40", "contact:twitter": "https://twitter.com/dominos_pizzafr", "contact:website": "https://www.dominos.fr/magasin/annemasse_74100", "contact:youtube": "https://www.youtube.com/user/DominosPizzaFrance", "cuisine": "pizza", "delivery": "yes", "name": "Domino's Pizza", "official_name": "Domino's Pizza Annemasse", "opening_hours": "Mo-Su 11:00-14:00, 18:00-22:30", "outdoor_seating": "no", "payment:american_express": "yes", "payment:coins": "yes", "payment:maestro": "yes", "payment:mastercard": "yes", "payment:meal_voucher": "yes", "payment:notes": "yes", "payment:visa": "yes", "ref:FR:NAF": "5610C", "ref:FR:SIREN": "489 314 419", "ref:FR:SIRET": "48931441900024", "short_name": "Domino's", "start_date": "2006-04-03", "takeaway": "yes", "wheelchair": "no"}}, {"type": "node", "id": 1433206561, "lat": 46.2074031, "lon": 6.1396649, "tags": {"amenity": "fast_food", "cuisine": "asian", "name": "Mike Wong"}}, {"type": "node", "id": 1459163420, "lat": 46.1944507, "lon": 6.1414229, "tags": {"addr:city": "Gen\u00e8ve", "addr:housenumber": "49", "addr:postcode": "1205", "addr:street": "Blvd. du pont d'arve", "amenity": "fast_food", "cuisine": "sushi", "name": "Misuji sushi", "phone": "+41 22 320 70 76", "website": "http://www.misuji.ch", "wheelchair": "limited"}}, {"type": "node", "id": 1637560333, "lat": 46.1852498, "lon": 6.1004758, "tags": {"addr:city": "Onex", "addr:country": "CH", "addr:housenumber": "106", "addr:postcode": "1213", "addr:street": "Avenue Bois-de-la-Chapelle", "amenity": "fast_food", "cuisine": "kebab", "name": "Onex Kebap", "wheelchair": "no", "wheelchair:description": "seuil d'entr\u00e9e=14cm en 2 marches, hauteur sous table=74cm, pas de WC"}}, {"type": "node", "id": 1723651260, "lat": 46.1967349, "lon": 6.1429309, "tags": {"addr:housenumber": "14", "addr:postcode": "1205", "addr:street": "Rue de Carouge", "amenity": "fast_food", "cuisine": "burger", "name": "Holy Cow", "opening_hours": "Mo-Su 11:00-23:00", "website": "https://www.holycow.ch/"}}, {"type": "node", "id": 1770928526, "lat": 46.1918044, "lon": 6.1442499, "tags": {"addr:city": "Gen\u00e8ve", "addr:housenumber": "1", "addr:postcode": "1205", "addr:street": "Place des Augustins", "amenity": "fast_food", "cuisine": "thai", "drive_through": "no", "name": "Thai Twist", "opening_hours": "Mo-Fr 11:30-15:00,18:00-22:00; Sa 12:00-22:00", "outdoor_seating": "yes", "payment:cash": "yes", "payment:credit_cards": "yes", "smoking": "no", "takeaway": "yes", "wheelchair": "limited"}}, {"type": "node", "id": 1804876708, "lat": 46.214073, "lon": 6.12943, "tags": {"amenity": "fast_food", "cuisine": "sushi"}}, {"type": "node", "id": 1808849452, "lat": 46.2471655, "lon": 6.2155481, "tags": {"amenity": "fast_food", "brand": "McDonald's", "brand:wikidata": "Q38076", "brand:wikipedia": "en:McDonald's", "cuisine": "burger", "name": "McDonald's", "takeaway": "yes"}}, {"type": "node", "id": 1816524107, "lat": 46.1429029, "lon": 6.0890852, "tags": {"amenity": "fast_food", "cuisine": "pizza"}}, {"type": "node", "id": 1854394145, "lat": 46.2431031, "lon": 6.0948661, "tags": {"amenity": "fast_food", "brand": "McDonald's", "brand:wikidata": "Q38076", "brand:wikipedia": "fr:McDonald's", "cuisine": "burger", "delivery": "no", "drive_through": "yes", "name": "McDonald's", "smoking": "no", "takeaway": "yes"}}, {"type": "node", "id": 1885196205, "lat": 46.2076952, "lon": 6.1425291, "tags": {"addr:city": "Gen\u00e8ve", "amenity": "fast_food", "cuisine": "kebab", "delivery": "no", "drive_through": "no", "name": "Anatolie", "smoking": "outside", "takeaway": "yes"}}, {"type": "node", "id": 1911140810, "lat": 46.2073207, "lon": 6.1392386, "tags": {"amenity": "fast_food"}}, {"type": "node", "id": 1911331757, "lat": 46.2102744, "lon": 6.1441496, "tags": {"addr:housenumber": "22", "addr:street": "Place de Cornavin", "amenity": "fast_food", "cuisine": "burger;vegetarian", "diet:vegetarian": "yes", "name": "Holy Cow", "website": "http://holycow.ch"}}, {"type": "node", "id": 1913971017, "lat": 46.204998, "lon": 6.1434733, "tags": {"amenity": "fast_food", "cuisine": "sandwich", "name": "D\u00e9lifrance"}}, {"type": "node", "id": 1936569509, "lat": 46.1923649, "lon": 6.1437793, "tags": {"amenity": "fast_food", "cuisine": "kebab", "name": "Ephese"}}, {"type": "node", "id": 1944006284, "lat": 46.1920133, "lon": 6.1441055, "tags": {"addr:city": "Gen\u00e8ve", "addr:housenumber": "65", "addr:postcode": "1205", "addr:street": "Rue de Carouge", "amenity": "fast_food", "cuisine": "ice_cream", "name": "Manu Il Gelato Italiano"}}, {"type": "node", "id": 2033145590, "lat": 46.1731067, "lon": 6.1230227, "tags": {"amenity": "fast_food", "name": "Kebab"}}, {"type": "node", "id": 2050881590, "lat": 46.2121745, "lon": 6.1507428, "tags": {"addr:housenumber": "9", "addr:postcode": "1201", "addr:street": "rue de l'Ancien-Port", "amenity": "fast_food", "cuisine": "sushi", "name": "Mikado Sushi", "website": "http://www.mikado-food.ch"}}, {"type": "node", "id": 2056821857, "lat": 46.18796, "lon": 6.1285248, "tags": {"addr:city": "Les Acacias", "addr:housenumber": "9", "addr:postcode": "1227", "addr:street": "Route des Jeunes", "amenity": "fast_food", "brand": "McDonald's", "brand:wikidata": "Q38076", "brand:wikipedia": "en:McDonald's", "cuisine": "burger", "name": "McDonald's", "operator": "McDonald's", "takeaway": "yes"}}, {"type": "node", "id": 2069048796, "lat": 46.1916511, "lon": 6.2207894}, {"type": "node", "id": 2069048804, "lat": 46.1917115, "lon": 6.2208916}, {"type": "node", "id": 2069048808, "lat": 46.1917297, "lon": 6.220742}, {"type": "node", "id": 2069048810, "lat": 46.1917621, "lon": 6.2208623}, {"type": "node", "id": 2076436120, "lat": 46.1834513, "lon": 6.1375126, "tags": {"addr:city": "Carouge", "addr:housenumber": "16", "addr:postcode": "1227", "addr:street": "Boulevard des Promenades", "amenity": "fast_food", "name": "La Maison du Sandwich"}}, {"type": "node", "id": 2082364474, "lat": 46.199839, "lon": 6.1740449, "tags": {"addr:city": "Gen\u00e8ve", "addr:housenumber": "63", "addr:street": "Route de Ch\u00eane", "amenity": "fast_food", "name": "Road Runner"}}, {"type": "node", "id": 2111992894, "lat": 46.1907665, "lon": 6.1438368, "tags": {"addr:city": "Geneva", "addr:country": "CH", "addr:housenumber": "69", "addr:street": "Rue de Carouge", "amenity": "fast_food", "cuisine": "sandwich;portuguese;coffee;snackbar", "email": "planetesandwichs@bluewin.ch", "internet_access": "yes", "name": "Plan\u00e8te Sandwichs", "note": "Fresh Sandwiches & Portuguese Speciality. Really Good Prices. From CHF5.80 to CHF8.50.", "opening_hours": "Mo-Sa 08:00-20:00", "operator": "D. Santos", "payment:cards": "yes", "payment:cash": "yes", "payment:mastercard": "yes", "payment:visa": "yes", "phone": "+41223280727", "source": "local knowledge", "takeaway": "yes", "website": "https://www.planetesandwichs.ch/"}}, {"type": "node", "id": 2120962507, "lat": 46.1909711, "lon": 6.1387659, "tags": {"addr:city": "Les Acacias", "addr:country": "CH", "addr:housenumber": "17bis", "addr:postcode": "1227", "addr:street": "Rue Caroline", "amenity": "fast_food", "cuisine": "pizza", "delivery": "yes", "drive_through": "no", "name": "Da Peppe Pizza", "opening_hours": "Mo-Fr 11:300-14:00, 18:00-23:00; Sa-Su 18:00-23:00", "operator": "Da Peppe", "outdoor_seating": "no", "smoking": "no", "source": "survey", "survey:date": "2013-01-20", "takeaway": "only"}}, {"type": "node", "id": 2126273887, "lat": 46.189204, "lon": 6.14335, "tags": {"addr:city": "Gen\u00e8ve", "addr:country": "CH", "addr:housenumber": "87", "addr:street": "Rue de Carouge", "amenity": "fast_food", "name": "Sadullah Bozan Chez Tonton", "note": "surveyed by Alex-7", "source": "survey", "survey:date": "2013-01-24"}}, {"type": "node", "id": 2188913031, "lat": 46.2005561, "lon": 6.1311007, "tags": {"addr:city": "Gen\u00e8ve", "addr:country": "CH", "addr:street": "Boulevard Carl-Vogt", "amenity": "fast_food", "name": "Kebab", "note": "surveyed by Alex-7", "source": "survey", "survey:date": "2013-03-06", "wheelchair": "yes"}}, {"type": "node", "id": 2188913111, "lat": 46.1969464, "lon": 6.137486, "tags": {"addr:city": "Gen\u00e8ve", "addr:country": "CH", "addr:housenumber": "68", "addr:street": "Boulevard Carl-Vogt", "amenity": "fast_food", "cuisine": "sushi", "note": "surveyed by Alex-7", "source": "survey", "survey:date": "2013-03-06"}}, {"type": "node", "id": 2395622187, "lat": 46.1960332, "lon": 6.1504358, "tags": {"amenity": "fast_food"}}, {"type": "node", "id": 2464246499, "lat": 46.2211593, "lon": 6.1129938, "tags": {"addr:city": "Cointrin, Gen\u00e8ve", "addr:housenumber": "34", "addr:street": "Avenue Louis-Casa\u00ef", "amenity": "fast_food", "cuisine": "tacos", "name": "Supreme Tacos", "opening_hours": "11:00 - 00:00 (vendredi 14:00 - 00:00)", "takeaway": "yes"}}, {"type": "node", "id": 2727918654, "lat": 46.2105052, "lon": 6.148885, "tags": {"amenity": "fast_food", "cuisine": "sandwich"}}, {"type": "node", "id": 2900978763, "lat": 46.1921253, "lon": 6.2081806, "tags": {"addr:housenumber": "140", "addr:street": "Rue de Gen\u00e8ve", "amenity": "fast_food", "cuisine": "kebab", "name": "Le Bosphore", "opening_hours": "Mo-Su 10:30-00:00", "ref:FR:NAF": "5610C", "ref:FR:SIREN": "388 444 713", "ref:FR:SIRET": "38844471300035", "start_date": "2008-01-17"}}, {"type": "node", "id": 2941106315, "lat": 46.2108125, "lon": 6.1433761, "tags": {"amenity": "fast_food", "brand": "Subway", "brand:wikidata": "Q244457", "brand:wikipedia": "en:Subway (restaurant)", "cuisine": "sandwich", "layer": "1", "name": "Subway", "takeaway": "yes", "wheelchair": "yes"}}, {"type": "node", "id": 3308298707, "lat": 46.1924793, "lon": 6.2345567, "tags": {"addr:housenumber": "5", "addr:street": "Rue Fernand David", "amenity": "fast_food", "cuisine": "kebab", "name": "Blanc Bleu", "phone": "+33 4 50 37 14 37", "website": "http://www.restaurant-soleil-annemasse.fr/"}}, {"type": "node", "id": 3310269139, "lat": 46.192432, "lon": 6.235961}, {"type": "node", "id": 3310269146, "lat": 46.192448, "lon": 6.235905}, {"type": "node", "id": 3310269150, "lat": 46.192452, "lon": 6.235894}, {"type": "node", "id": 3310269468, "lat": 46.192501, "lon": 6.236003}, {"type": "node", "id": 3310269480, "lat": 46.192518, "lon": 6.235947}, {"type": "node", "id": 3310269481, "lat": 46.192521, "lon": 6.235937}, {"type": "node", "id": 3735083512, "lat": 46.2097942, "lon": 6.1419199, "tags": {"addr:city": "Gen\u00e8ve", "amenity": "fast_food", "cuisine": "pizza", "delivery": "no", "drive_through": "no", "name": "amo", "smoking": "no", "takeaway": "only"}}, {"type": "node", "id": 3735461026, "lat": 46.2100809, "lon": 6.1429821, "tags": {"amenity": "fast_food", "level": "-1", "name": "La Maison du Sandwich"}}, {"type": "node", "id": 3741516941, "lat": 46.2016827, "lon": 6.1457378, "tags": {"amenity": "fast_food", "name": "Une bonne sant\u00e9", "opening_hours": "Mo-Sa 08:00-16:30; Th 08:00-18:00", "phone": "+41 22 310 15 86", "website": "http://www.unebonnesante.ch"}}, {"type": "node", "id": 3783898580, "lat": 46.2134749, "lon": 6.1297404, "tags": {"addr:city": "Gen\u00e8ve", "amenity": "fast_food", "cuisine": "sandwich", "delivery": "no", "drive_through": "no", "name": "Take Away", "operator": "Migros", "outdoor_seating": "no", "smoking": "no", "takeaway": "only", "wheelchair": "yes"}}, {"type": "node", "id": 3791326818, "lat": 46.2192917, "lon": 6.1134343, "tags": {"addr:city": "Gen\u00e8ve", "addr:housenumber": "27", "addr:postcode": "1211", "addr:street": "Avenue Louis-Casa\u00ef", "amenity": "fast_food", "cuisine": "sandwich", "delivery": "no", "drive_through": "no", "smoking": "no", "takeaway": "yes"}}, {"type": "node", "id": 3903721125, "lat": 46.2204873, "lon": 6.0519098}, {"type": "node", "id": 3903721126, "lat": 46.2203765, "lon": 6.0520632}, {"type": "node", "id": 3903721127, "lat": 46.2203172, "lon": 6.0519775}, {"type": "node", "id": 3903721128, "lat": 46.2204319, "lon": 6.0518207}, {"type": "node", "id": 4234639892, "lat": 46.2091222, "lon": 6.1439368, "tags": {"addr:housenumber": "24", "addr:street": "Rue du Mont-Blanc", "amenity": "fast_food", "brand": "Five Guys", "brand:wikidata": "Q1131810", "brand:wikipedia": "en:Five Guys", "cuisine": "burger", "delivery": "no", "name": "Five Guys", "official_name": "Five Guys Burgers and Fries", "opening_hours": "Mo-Th, Su 11:00-00:00; Fr, Sa 11:00-01:00", "phone": "+41 22 900 16 69", "smoking": "no", "takeaway": "yes", "website": "https://www.fiveguys.ch"}}, {"type": "node", "id": 4237461916, "lat": 46.2571704, "lon": 6.1109001, "tags": {"amenity": "fast_food", "cuisine": "kebab", "name": "Al Madina", "opening_hours": "Mo-Sa 09:00-20:00; Su 09:00-15:30"}}, {"type": "node", "id": 4239450977, "lat": 46.2192683, "lon": 6.1135703, "tags": {"addr:city": "Gen\u00e8ve", "addr:housenumber": "27", "addr:postcode": "1211", "addr:street": "Avenue Louis-Casa\u00ef", "amenity": "fast_food", "cuisine": "japanese", "delivery": "no", "drive_through": "no", "smoking": "no", "takeaway": "yes"}}, {"type": "node", "id": 4307767389, "lat": 46.2106443, "lon": 6.1522707, "tags": {"amenity": "fast_food", "cuisine": "ice_cream", "name": "Glacier du soleil", "wheelchair": "yes"}}, {"type": "node", "id": 4314232301, "lat": 46.1799849, "lon": 6.1281324, "tags": {"addr:city": "Carouge", "addr:housenumber": "10", "addr:postcode": "1227", "addr:street": "Route des Jeunes", "amenity": "fast_food", "brand": "McDonald's", "brand:wikidata": "Q38076", "brand:wikipedia": "en:McDonald's", "cuisine": "burger", "name": "McDonald's", "operator": "McDonald's", "takeaway": "yes", "wheelchair": "yes"}}, {"type": "node", "id": 4314315119, "lat": 46.2305748, "lon": 6.1071163, "tags": {"addr:city": "Gen\u00e8ve", "addr:housenumber": "13", "addr:postcode": "1215", "addr:street": "Route de l'A\u00e9roport", "amenity": "fast_food", "brand": "Burger King", "brand:wikidata": "Q177054", "brand:wikipedia": "en:Burger King", "cuisine": "burger", "delivery": "no", "drive_through": "no", "name": "Burger King", "operator": "Burger King", "smoking": "outside", "takeaway": "yes", "wheelchair": "yes"}}, {"type": "node", "id": 4329066108, "lat": 46.211314, "lon": 6.1121308, "tags": {"amenity": "fast_food", "name": "Alp Traiteur"}}, {"type": "node", "id": 4365115852, "lat": 46.2120841, "lon": 6.1500122, "tags": {"amenity": "fast_food"}}, {"type": "node", "id": 4365115853, "lat": 46.2120296, "lon": 6.1500167, "tags": {"amenity": "fast_food"}}, {"type": "node", "id": 4376797980, "lat": 46.2013771, "lon": 6.1325395, "tags": {"amenity": "fast_food", "description": "nourriture tha\u00eflandaise"}}, {"type": "node", "id": 4386975589, "lat": 46.2030307, "lon": 6.1390878, "tags": {"amenity": "fast_food", "name": "seed", "name:fr": "seed"}}, {"type": "node", "id": 4387017392, "lat": 46.2023722, "lon": 6.139243, "tags": {"amenity": "fast_food", "name": "seed", "name:fr": "seed"}}, {"type": "node", "id": 4387021797, "lat": 46.2024367, "lon": 6.1381337, "tags": {"amenity": "fast_food", "name": "cocotte", "name:fr": "cocotte", "opening_hours": "Mo-Fr 06:30-17:30"}}, {"type": "node", "id": 4407929396, "lat": 46.2057082, "lon": 6.1216765, "tags": {"amenity": "fast_food", "name": "Tea-Room Le Cayla", "name:fr": "Tea-Room Le Cayla"}}, {"type": "node", "id": 4458279545, "lat": 46.2594668, "lon": 6.1167642, "tags": {"access:covid19": "yes", "addr:city": "Ferney-Voltaire", "addr:housenumber": "67 bis", "addr:postcode": "01210", "addr:street": "Rue de Versoix", "amenity": "fast_food", "cuisine": "burger;friture", "delivery": "no", "delivery:covid19": "no", "drive_through": "no", "drive_through:covid19": "yes", "name": "\u00c0 la Friterie des Ch'tis", "opening_hours": "Mo-Sa 11:30-14:00, 18:30-22:00; Su 18:30-22:00", "opening_hours:covid19": "open", "outdoor_seating": "yes", "payment:cash": "yes", "payment:credit_cards": "yes", "payment:debit_cards": "yes", "phone": "+33 4 50 41 63 48", "smoking": "outside", "takeaway": "yes", "takeaway:covid19": "yes"}}, {"type": "node", "id": 4476513202, "lat": 46.21035, "lon": 6.1493006, "tags": {"addr:city": "Gen\u00e8ve", "addr:housenumber": "10", "addr:postcode": "1201", "addr:street": "Rue De-Monthoux", "amenity": "fast_food", "cuisine": "tacos", "delivery": "yes", "drive_through": "no", "name": "Supreme Tacos", "opening_hours": "Dimanche - Jeudi : 11:00 - 01:00. Vendredi - Samedi : 11:00 - 02:00", "operator": "Supreme Tacos", "smoking": "outside", "takeaway": "only"}}, {"type": "node", "id": 4724607605, "lat": 46.1414989, "lon": 6.0831639, "tags": {"addr:housenumber": "24", "addr:street": "Avenue de Ternier", "amenity": "fast_food", "contact:phone": "+33951258450", "cuisine": "kebab", "name": "Le 19 Pizzeria & Kebab", "takeaway": "yes"}}, {"type": "node", "id": 4738203161, "lat": 46.2357333, "lon": 6.1918461, "tags": {"addr:city": "V\u00e9senaz", "addr:country": "CH", "addr:housenumber": "9A", "addr:postcode": "1222", "addr:street": "Chemin des P\u00eacheurs", "amenity": "fast_food", "description": "Sympathique terrasse au bord de l\u2019eau, le Ponton de la Belotte vous accueille pour boire un verre et pour se d\u00e9tendre dans un cadre idyllique.", "name": "Le Ponton", "operator": "Marina de la Belotte", "outdoor_seating": "yes", "smoking": "outside", "takeaway": "yes", "website": "https://www.bateau-yacht-geneve.ch/bar-terrasse-le-ponton/"}}, {"type": "node", "id": 4747113221, "lat": 46.2043319, "lon": 6.159083, "tags": {"amenity": "fast_food", "name": "Pouly", "name:fr": "Pouly"}}, {"type": "node", "id": 4785942323, "lat": 46.2067148, "lon": 6.1444047, "tags": {"addr:housenumber": "6", "addr:street": "Rue du Cendrier", "amenity": "fast_food", "brand": "Subway", "brand:wikidata": "Q244457", "brand:wikipedia": "en:Subway (restaurant)", "cuisine": "sandwich", "name": "Subway", "name:de": "Subway", "takeaway": "yes"}}, {"type": "node", "id": 4825677959, "lat": 46.1917547, "lon": 6.1033385, "tags": {"addr:city": "Onex", "addr:housenumber": "27", "addr:postcode": "1213", "addr:street": "Avenue des Grandes-Communes", "amenity": "fast_food", "cuisine": "turkish", "name": "Kebab du March\u00e9"}}, {"type": "node", "id": 4859824055, "lat": 46.2852906, "lon": 6.0860197, "tags": {"amenity": "fast_food", "cuisine": "kebab", "name": "Le Cam\u00e9l\u00e9on Kebab", "takeaway": "yes"}}, {"type": "node", "id": 4968999774, "lat": 46.2085195, "lon": 6.1230821, "tags": {"amenity": "fast_food", "brand": "Burger King", "brand:wikidata": "Q177054", "brand:wikipedia": "en:Burger King", "cuisine": "burger", "name": "Burger King", "takeaway": "yes"}}, {"type": "node", "id": 5314585373, "lat": 46.1931312, "lon": 6.2326522, "tags": {"addr:housenumber": "1", "addr:street": "Rue Adrien Ligu\u00e9", "amenity": "fast_food", "contact:phone": "+33 8 99 37 71 03", "cuisine": "pizza", "name": "Pizza OTTO", "takeaway": "yes"}}, {"type": "node", "id": 5314590699, "lat": 46.1930332, "lon": 6.2323933, "tags": {"addr:housenumber": "8", "addr:street": "Rue de Gen\u00e8ve", "amenity": "fast_food", "cuisine": "kebab", "name": "Cass'Dal", "phone": "+33 4 50 92 35 50"}}, {"type": "node", "id": 5314743273, "lat": 46.1942635, "lon": 6.2333867, "tags": {"addr:housenumber": "1", "addr:street": "Rue Albert Montfort", "amenity": "fast_food", "contact:phone": "+33 4 56 30 79 92", "contact:website": "http://www.burgerntacos.com/tag/burger-n-tacos-annemasse/", "cuisine": "burger;mexican", "name": "Burger n Tacos", "takeaway": "yes"}}, {"type": "node", "id": 5314891637, "lat": 46.1929796, "lon": 6.2345369}, {"type": "node", "id": 5314891638, "lat": 46.1929992, "lon": 6.2345215}, {"type": "node", "id": 5314891639, "lat": 46.1930058, "lon": 6.2346062}, {"type": "node", "id": 5314891640, "lat": 46.1930254, "lon": 6.2345907}, {"type": "node", "id": 5315385857, "lat": 46.1938766, "lon": 6.2335084, "tags": {"addr:housenumber": "7", "addr:street": "Rue de la Gare", "amenity": "fast_food", "contact:phone": "+33 4 50 37 17 17", "name": "Il Gusto"}}, {"type": "node", "id": 5323308552, "lat": 46.1937023, "lon": 6.2369199, "tags": {"addr:housenumber": "8", "addr:street": "Rue Paul Bert", "amenity": "fast_food", "contact:phone": "+33 9 67 01 05 81", "contact:website": "http://www.issyfried.com/", "name": "Issy Fried Chicken"}}, {"type": "node", "id": 5323345150, "lat": 46.1937221, "lon": 6.2328161, "tags": {"addr:housenumber": "9", "addr:street": "Rue Adrien Ligu\u00e9", "amenity": "fast_food", "contact:phone": "+33 4 50 79 89 99", "contact:website": "http://www.chickn-burger.com/", "name": "Chick'n Burger"}}, {"type": "node", "id": 5335328566, "lat": 46.1971433, "lon": 6.2358288, "tags": {"addr:housenumber": "6", "addr:street": "All\u00e9e Simone Signoret", "amenity": "fast_food", "contact:facebook": "fr-fr.facebook.com/BChefAnnemasse/", "contact:phone": "+33 4 50 75 64 15", "contact:website": "http://bchef.fr/", "name": "BChef"}}, {"type": "node", "id": 5343191923, "lat": 46.2097067, "lon": 6.1421844, "tags": {"amenity": "fast_food", "brand": "Burger King", "brand:wikidata": "Q177054", "brand:wikipedia": "en:Burger King", "cuisine": "burger", "level": "0", "name": "Burger King", "takeaway": "yes"}}, {"type": "node", "id": 5366455006, "lat": 46.1971992, "lon": 6.2339486, "tags": {"addr:housenumber": "20", "addr:street": "Avenue \u00c9mile Zola", "amenity": "fast_food", "contact:phone": "+33 9 73 23 32 32", "contact:website": "https://garden-burger.fr/", "name": "Garden Burger", "opening_hours": "Mo-Th,Sa 12:00-14:00, 19:00-23:00; Fr off; Su 19:00-23:00"}}, {"type": "node", "id": 5467894090, "lat": 46.1956867, "lon": 6.2392452, "tags": {"addr:housenumber": "34", "addr:street": "Avenue Jules Ferry", "amenity": "fast_food", "contact:phone": "+33 4 50 37 20 23", "contact:website": "http://pizzafive-annemasse.fr/", "cuisine": "pizza", "name": "Pizza Five"}}, {"type": "node", "id": 5581260336, "lat": 46.2105377, "lon": 6.1444035, "tags": {"addr:housenumber": "22", "addr:street": "Rue des Alpes", "alt_name": "Kentucky Fried Chicken", "amenity": "fast_food", "brand": "KFC", "brand:wikidata": "Q524757", "brand:wikipedia": "en:KFC", "cuisine": "chicken", "name": "KFC", "ref:vatin": "CH114553435", "takeaway": "yes"}}, {"type": "node", "id": 5584474007, "lat": 46.2283401, "lon": 6.1427307, "tags": {"amenity": "fast_food", "cuisine": "pasta", "level": "-1", "name": "Pasta Corner", "operator": "Eldora SA"}}, {"type": "node", "id": 5669881277, "lat": 46.197025, "lon": 6.2356605, "tags": {"addr:housenumber": "42", "addr:street": "Avenue de la Gare", "amenity": "fast_food", "contact:facebook": "https://fr-fr.facebook.com/pages/biz/The-crazy-cr%C3%AApes-195661004365364/", "contact:phone": "+33 4 50 38 41 69", "cuisine": "crepe", "name": "Crazy Cr\u00eapes", "ref:FR:NAF": "5610C"}}, {"type": "node", "id": 5745008029, "lat": 46.1976683, "lon": 6.236781, "tags": {"addr:housenumber": "5", "addr:street": "Rue du M\u00f4le", "amenity": "fast_food", "contact:phone": "+33 4 50 92 05 11", "cuisine": "pizza", "name": "Chrono PIzza"}}, {"type": "node", "id": 5796660079, "lat": 46.1881113, "lon": 6.1385525, "tags": {"addr:city": "Les Acacias", "addr:housenumber": "49", "addr:postcode": "1227", "addr:street": "Rue Caroline", "amenity": "fast_food", "brand": "Domino's Pizza", "brand:wikidata": "Q839466", "brand:wikipedia": "en:Domino's Pizza", "cuisine": "pizza", "delivery": "yes", "drive_through": "no", "name": "Domino's Pizza Carouge", "opening_hours": "Mo-Th 11:00-13:30, 17:00-23:00; Fr 11:00-13:30, 17:00-23:59; Sa 11:00-23:59; Su 11:00-23:00", "operator": "Domino's Pizza", "outdoor_seating": "no", "phone": "+41 22 807 09 40", "short_name": "Domino's", "smoking": "no", "takeaway": "yes"}}, {"type": "node", "id": 5807037461, "lat": 46.2372039, "lon": 6.0783847, "tags": {"addr:city": "Meyrin", "addr:housenumber": "17", "addr:postcode": "1217", "addr:street": "Promenade des Champs-Fr\u00e9chets", "amenity": "fast_food", "cuisine": "kebab", "email": "oktaycoskun6@gmail.com", "name": "Champs Fr\u00e9chets Doner Kebab, K. Coskun S.A.", "opening_hours": "Mo-Sa 08:00-23:00", "phone": "+41 22 782 52 90", "website": "https://kebabgeneve.ch/"}}, {"type": "node", "id": 6184708485, "lat": 46.2120519, "lon": 6.1449793, "tags": {"addr:housenumber": "26", "addr:street": "Rue de Lausanne", "amenity": "fast_food", "cuisine": "turkish", "name:en": "Ali Haydar Kebab"}}, {"type": "node", "id": 6185697986, "lat": 46.2552873, "lon": 6.1104331, "tags": {"addr:postcode": "01210", "amenity": "fast_food", "cuisine": "arab;burger;friture;mexican", "email": "burgertime210@gmail.com", "name": "Burger Time", "opening_hours": "Mo-Th 11:30-15:30, 18:00-23:30; Fr 16:00-23:30; Sa-Su 11:00-23:30", "phone": "+33 6 51 74 86 52"}}, {"type": "node", "id": 6354303696, "lat": 46.1672423, "lon": 6.1167856, "tags": {"amenity": "fast_food", "name": "La Baraque \u00e0 Thomas"}}, {"type": "node", "id": 6358767387, "lat": 46.1657815, "lon": 6.1082232, "tags": {"amenity": "fast_food", "cuisine": "kebab", "drive_through": "no", "name": "Kinnik"}}, {"type": "node", "id": 6402506385, "lat": 46.203101, "lon": 6.1578075, "tags": {"addr:housenumber": "6", "addr:street": "Rue de la Mairie", "amenity": "fast_food", "cuisine": "libanais", "name": "Fouad Le Snack", "opening_hours": "Mo-Sa 11:00-00:00", "phone": "+41 22 700 33 00", "website": "http://fouadtraiteur.ch/snack_accueil.html"}}, {"type": "node", "id": 6505403386, "lat": 46.2078184, "lon": 6.1427111, "tags": {"addr:housenumber": "29", "addr:postcode": "1201", "addr:street": "Rue Rousseau", "amenity": "fast_food", "name:en": "Burrito Brothers"}}, {"type": "node", "id": 6582239185, "lat": 46.1626472, "lon": 6.0956932, "tags": {"amenity": "fast_food", "name": "Food Truck du Relais-Thai"}}, {"type": "node", "id": 6629078485, "lat": 46.1662342, "lon": 6.1088205, "tags": {"amenity": "fast_food", "name": "Fast Good"}}, {"type": "node", "id": 6763579085, "lat": 46.2312409, "lon": 6.0697518, "tags": {"addr:housenumber": "12", "addr:postcode": "1217", "addr:street": "Rue des Arpenteurs", "amenity": "fast_food", "name": "Pane & Olio", "opening_hours": "Mo-We 08:00-21:30; Th-Fr 08:30-22:00; Sa 09:00-22:00"}}, {"type": "node", "id": 6765622873, "lat": 46.2085602, "lon": 6.1441701, "tags": {"amenity": "fast_food", "fast_food": "mexican", "name": "Taco rico"}}, {"type": "node", "id": 6767350498, "lat": 46.2047478, "lon": 6.1390615, "tags": {"amenity": "fast_food", "name": "La barje des lavandi\u00e8res"}}, {"type": "node", "id": 6798230985, "lat": 46.229391, "lon": 6.0623259, "tags": {"addr:housenumber": "15", "addr:postcode": "1217", "addr:street": "Route du Mandement", "amenity": "fast_food", "cuisine": "italian_pizza", "name": "Da Vinci", "opening_hours": "Mo-Sa 11:00-14:00, 18:00-23:00; Su 18:00-22:30", "phone": "+41 22 980 92 92", "website": "http://pizzeria-davinci.ch"}}, {"type": "node", "id": 6807565534, "lat": 46.1953559, "lon": 6.1420584, "tags": {"amenity": "fast_food", "cuisine": "fried_chicken", "name": "Chic Chicken"}}, {"type": "node", "id": 6813030985, "lat": 46.2270901, "lon": 6.0856, "tags": {"amenity": "fast_food", "internet_access": "wlan", "name:en": "McDonald\u2019s", "name:ru": "\u041c\u0430\u043a\u0414\u043e\u043d\u0430\u043b\u044c\u0434\u0441"}}, {"type": "node", "id": 6906143643, "lat": 46.2018915, "lon": 6.1570446, "tags": {"amenity": "fast_food", "cuisine": "burger", "name": "Inglewood", "opening_hours": "Mo-Fr 11:30-14:30,19:00-22:00; Sa 12:00-14:45,19:00-22:00; Su 12:00-15:00,18:30-21:30", "phone": "+41 22 700 27 85"}}, {"type": "node", "id": 6917861428, "lat": 46.2498346, "lon": 6.0903177, "tags": {"amenity": "fast_food", "cuisine": "pizza", "delivery": "yes", "drive_through": "no", "name": "Le nomade", "takeaway": "only", "website": "https://pizzalenomade.com/prevessinmoens/"}}, {"type": "node", "id": 6917948592, "lat": 46.2583295, "lon": 6.111662, "tags": {"amenity": "fast_food", "food": "pizza", "name": "Pizza ma\u00eft\u00e9"}}, {"type": "node", "id": 6956877034, "lat": 46.1872861, "lon": 6.1269254, "tags": {"addr:city": "Petit-Lancy", "addr:housenumber": "2", "addr:postcode": "1212", "addr:street": "Esplace de Pont-Rouge", "amenity": "fast_food", "cuisine": "bagel", "drive_through": "no", "name": "Bagel & Juice Factory"}}, {"type": "node", "id": 7089272983, "lat": 46.2272393, "lon": 6.0859287, "tags": {"amenity": "fast_food", "brand": "McDonald's", "brand:wikidata": "Q38076", "brand:wikipedia": "en:McDonald's", "cuisine": "burger", "level": "0", "name": "McDonald's", "takeaway": "yes"}}, {"type": "node", "id": 7096129941, "lat": 46.1996441, "lon": 6.2269581, "tags": {"addr:city": "Ambilly", "addr:housenumber": "19", "addr:postcode": "74100", "addr:street": "Rue Ravier", "amenity": "fast_food", "contact:phone": "+33 4 50 38 39 70", "cuisine": "pizza", "name": "La Bolognese", "opening_hours": "Mo-Sa 18:00-21:30; Su off", "ref:FR:NAF": "1071B", "ref:FR:SIREN": "333 380 533", "ref:FR:SIRET": "33338053300039", "start_date": "1985-09-05", "takeaway": "yes"}}, {"type": "node", "id": 7101278533, "lat": 46.2282286, "lon": 5.9933406, "tags": {"amenity": "fast_food", "cuisine": "burger", "name": "Les burgers de papa"}}, {"type": "node", "id": 7120254916, "lat": 46.1916663, "lon": 6.2208417}, {"type": "node", "id": 7120254917, "lat": 46.1916938, "lon": 6.2208232}, {"type": "node", "id": 7272030317, "lat": 46.1925134, "lon": 6.1542268, "tags": {"addr:city": "Gen\u00e8ve", "addr:housenumber": "8", "addr:postcode": "1206", "addr:street": "Avenue Alfred-Bertrand", "amenity": "fast_food", "cuisine": "thai", "name": "Petit Piment", "opening_hours": "Mo-Su 10:00-16:00", "takeaway": "only"}}, {"type": "node", "id": 7605330585, "lat": 46.2025742, "lon": 6.1555774, "tags": {"addr:housenumber": "67", "addr:postcode": "1207", "addr:street": "Rue du Rh\u00f4ne", "amenity": "fast_food", "name": "Molokai Fusion Poke Bar", "website": "http://molokai-poke.ch"}}, {"type": "node", "id": 7698869483, "lat": 46.1937459, "lon": 6.2002454, "tags": {"addr:city": "Th\u00f4nex", "addr:housenumber": "8", "addr:postcode": "1226", "addr:street": "Chemin des Deux-Communes", "amenity": "fast_food", "cuisine": "burger", "drive_through": "no", "name": "Le JoshMaraburger", "opening_hours": "Mo-Su 10:00-22:00", "opening_hours:covid19": "same"}}, {"type": "node", "id": 7913936825, "lat": 46.1777707, "lon": 6.1357386, "tags": {"amenity": "fast_food", "cuisine": "coffee_shop;sandwich;salad", "name": "Le Caf\u00e9 sans Nom"}}, {"type": "node", "id": 8018105094, "lat": 46.233142, "lon": 6.0741783, "tags": {"addr:city": "Meyrin", "addr:housenumber": "26", "addr:postcode": "1217", "addr:street": "Esplanade des R\u00e9cr\u00e9ations", "amenity": "fast_food", "cuisine": "french;local;brunch", "delivery": "yes", "email": "contact@lembouchure.ch", "level": "0", "name": "L'Embouchure Food Lab", "opening_hours": "Mo 10:00-22:00; Tu-We 10:00-15:00; Th-Fr 10:00-22:00; Sa 17:00-22:00; Su 11:00-20:00", "phone": "+41 22 777 71 65", "start_date": "2020", "website": "https://lembouchure.ch"}}, {"type": "way", "id": 108839938, "nodes": [1247776121, 1247804441, 1247790976, 1247784595, 1247800999, 1247796836, 1247776558, 1247804839, 1247787306, 1247782849, 1247798452, 1247794033, 1247806410, 1247802746, 1247784412, 1247780081, 1247796653, 1247790610, 1247796539, 1247790287, 1247804522, 1247800403, 1247782255, 1247776202, 1247793449, 1247786752, 1247802457, 1247798163, 1247779443, 1247806121, 1247776121], "tags": {"amenity": "fast_food", "brand": "McDonald's", "brand:wikidata": "Q38076", "brand:wikipedia": "en:McDonald's", "building": "yes", "cuisine": "burger", "name": "McDonald's", "source": "cadastre-dgi-fr source : Direction G\u00e9n\u00e9rale des Imp\u00f4ts - Cadastre. Mise \u00e0 jour : 2011", "takeaway": "yes"}}, {"type": "way", "id": 196588383, "nodes": [2069048808, 2069048810, 2069048804, 7120254917, 7120254916, 2069048796, 2069048808], "tags": {"addr:housenumber": "31", "addr:postcode": "74100", "addr:street": "Rue de Gen\u00e8ve", "amenity": "fast_food", "building": "commercial", "building:levels": "1", "cuisine": "chicken", "name": "Best Fried Chicken", "opening_hours": "Tu-Su 00:00-24:00", "phone": "+33 4 50 74 35 96", "source": "Orthophotos 2009 du SITG (Syst\u00e8me d'Information du Territoire Genevois)", "website": "http://www.bfc-tandoori.fr"}}, {"type": "way", "id": 324289075, "nodes": [3310269139, 3310269468, 3310269480, 3310269481, 3310269150, 3310269146, 3310269139], "tags": {"addr:city": "Annemasse", "addr:postcode": "74100", "addr:street": "Place de la Lib\u00e9ration", "alt_name": "Chez Doudou", "amenity": "fast_food", "building": "commercial", "building:levels": "1", "contact:phone": "+33 4 50 83 73 17", "name": "Snack du March\u00e9", "opening_hours": "Tu-Sa 09:00-19:30; Mo,Su off", "source": "cadastre-dgi-fr source : Direction G\u00e9n\u00e9rale des Finances Publiques - Cadastre. Mise \u00e0 jour : 2015"}}, {"type": "way", "id": 369638192, "nodes": [1211422483, 918999981, 918999945, 1211422053, 1211422590, 1211422483], "tags": {"addr:city": "Bellevue", "addr:housenumber": "341", "addr:street": "Route de Lausanne", "amenity": "fast_food", "building": "yes", "cuisine": "pizza", "name": "Bellavista", "source": "Orthophotos 2009 du SITG (Syst\u00e8me d'Information du Territoire Genevois)", "website": "https://bellavista-lac.ch"}}, {"type": "way", "id": 387028458, "nodes": [3903721125, 3903721126, 3903721127, 3903721128, 3903721125], "tags": {"amenity": "fast_food", "building": "yes", "name": "Aim\u00e9 Pouly"}}, {"type": "way", "id": 550263575, "nodes": [5314891639, 5314891637, 5314891638, 5314891640, 5314891639], "tags": {"amenity": "fast_food", "building": "yes", "contact:website": "https://annemasse-commerces.fr/portfolio_item/snack-couty/", "name": "Snack Couty"}}]}